APRIZESAT 2             
1 28366U 04025A   22364.59199949  .00000150  00000+0  60625-4 0  9996
2 28366  98.1361 223.4167 0108632 104.8578 256.4672 14.36889134969983
SAUDICOMSAT 1           
1 28369U 04025D   22365.19534476  .00000575  00000+0  15014-3 0  9996
2 28369  98.4692 328.3662 0032303 293.5848  66.1956 14.52959188980471
SAUDICOMSAT 2           
1 28370U 04025E   22365.44218519  .00000404  00000+0  11954-3 0  9993
2 28370  98.5612 328.1274 0058484 124.4356 236.2383 14.47838664977151
APRIZESAT 1             
1 28372U 04025G   22365.49553428  .00000439  00000+0  12426-3 0  9994
2 28372  98.5222 328.1964 0046849  37.2830 323.1600 14.49921426978707
NANOSAT-1               
1 28493U 04049B   22365.55651790  .00001094  00000+0  17297-3 0  9991
2 28493  98.1187 106.5818 0005096  37.4785 322.6777 14.74321243968913
SAUDICOMSAT 7           
1 31119U 07012C   22364.40940817  .00000618  00000+0  12915-3 0  9990
2 31119  98.2095 308.6750 0059071 196.5453 163.3823 14.62318895837342
SAUDICOMSAT 6           
1 31121U 07012E   22364.37937463  .00000816  00000+0  17732-3 0  9994
2 31121  98.2485 303.8896 0074974 303.9186  55.4900 14.59082527835512
SAUDICOMSAT 5           
1 31124U 07012H   22364.92799812  .00000781  00000+0  15529-3 0  9995
2 31124  98.1790 310.5958 0051905 139.3201 221.1896 14.64061171838400
SAUDICOMSAT 3           
1 31125U 07012J   22364.60430792  .00000897  00000+0  17067-3 0  9997
2 31125  98.1449 311.5381 0044109  85.7850 274.8393 14.65916370839314
SAUDICOMSAT 4           
1 31127U 07012L   22364.40825182  .00000699  00000+0  14891-3 0  9990
2 31127  98.2316 307.1065 0066232 247.3565 112.0621 14.60824590836489
APRIZESAT 4             
1 35684U 09041D   22365.27790840  .00000778  00000+0  10884-3 0  9990
2 35684  98.3010  25.5983 0047883  80.5378 280.1241 14.79895103724224
APRIZESAT 3             
1 35686U 09041F   22365.24549792  .00001483  00000+0  15974-3 0  9996
2 35686  98.1019  96.2718 0070183 262.9686  96.3545 14.88349549727923
AISSAT 1                
1 36797U 10035C   22365.09720202  .00002363  00000+0  26596-3 0  9995
2 36797  98.2329 196.3887 0009575 249.0234 110.9957 14.87672107675800
S-NET D                 
1 43186U 18014G   22364.50908724  .00002419  00000+0  20539-3 0  9995
2 43186  97.6479 266.4309 0011312   6.5750 353.5619 14.98784395268272
S-NET B                 
1 43187U 18014H   22364.77658341  .00002983  00000+0  25214-3 0  9993
2 43187  97.6471 266.6350 0011272   5.2068 354.9270 14.98783896268314
S-NET A                 
1 43188U 18014J   22365.44449934  .00002666  00000+0  22584-3 0  9990
2 43188  97.6475 267.3656 0011200   2.7384 357.3898 14.98786695268414
S-NET C                 
1 43189U 18014K   22364.77803623  .00003039  00000+0  25684-3 0  9994
2 43189  97.6468 266.6220 0011209   4.6000 355.5324 14.98777744266867
SALSAT                  
1 46495U 20068K   22364.43665581  .00003867  00000+0  27201-3 0  9997
2 46495  97.7524 306.1326 0015492 340.1155  19.9466 15.05595338123662
